start=new Date('2022-08-10T00:00:00.000Z').valueOf();
sats=[{"RA_OF_ASC_NODE":"10.9747","CENTER_NAME":"EARTH","ECCENTRICITY":"0.00014930","EPHEMERIS_TYPE":"0","COUNTRY_CODE":"US","OBJECT_ID":"2022-052AU","CLASSIFICATION_TYPE":"U","GP_ID":"209931972","FILE":"3533123","OBJECT_TYPE":"PAYLOAD","DECAY_DATE":null,"PERIOD":"93.883","BSTAR":"-0.03502000000000","MEAN_ANOMALY":"255.4622","MEAN_MOTION_DDOT":"0.0000000000000","APOAPSIS":"465.455","REF_FRAME":"TEME","PERIAPSIS":"463.412","TLE_LINE1":"1 52640U 22052AU  22221.91667824 -.01066117  00000-0 -35020-1 0  9995","NORAD_CAT_ID":"52640","EPOCH":"2022-08-09T22:00:00.999936","ELEMENT_SET_NO":"999","LAUNCH_DATE":"2022-05-14","TLE_LINE2":"2 52640  53.2172  10.9747 0001493  45.8118 255.4622 15.33818820  1300","SEMIMAJOR_AXIS":"6842.568","OBJECT_NAME":"STARLINK-3977","MEAN_MOTION":"15.33818820","MEAN_ELEMENT_THEORY":"SGP4","ARG_OF_PERICENTER":"45.8118","TIME_SYSTEM":"UTC","MEAN_MOTION_DOT":"-0.01066117","RCS_SIZE":"LARGE","SITE":"AFETR","INCLINATION":"53.2172","REV_AT_EPOCH":"130"},{"TIME_SYSTEM":"UTC","MEAN_MOTION_DOT":"-0.01066738","REV_AT_EPOCH":"130","INCLINATION":"53.2172","RCS_SIZE":"LARGE","SITE":"AFETR","LAUNCH_DATE":"2022-05-14","ELEMENT_SET_NO":"999","TLE_LINE2":"2 52641  53.2172  11.0207 0001277  54.8171 288.3337 15.35374492  1305","NORAD_CAT_ID":"52641","TLE_LINE1":"1 52641U 22052AV  22221.91667824 -.01066738  00000-0 -33340-1 0  9998","EPOCH":"2022-08-09T22:00:00.999936","OBJECT_NAME":"STARLINK-3991","MEAN_MOTION":"15.35374492","MEAN_ELEMENT_THEORY":"SGP4","ARG_OF_PERICENTER":"54.8171","SEMIMAJOR_AXIS":"6837.945","PERIOD":"93.788","OBJECT_TYPE":"PAYLOAD","DECAY_DATE":null,"APOAPSIS":"460.684","REF_FRAME":"TEME","PERIAPSIS":"458.937","BSTAR":"-0.03334000000000","MEAN_ANOMALY":"288.3337","MEAN_MOTION_DDOT":"0.0000000000000","CENTER_NAME":"EARTH","ECCENTRICITY":"0.00012770","RA_OF_ASC_NODE":"11.0207","FILE":"3533123","COUNTRY_CODE":"US","OBJECT_ID":"2022-052AV","EPHEMERIS_TYPE":"0","CLASSIFICATION_TYPE":"U","GP_ID":"209932239"},{"COUNTRY_CODE":"US","EPHEMERIS_TYPE":"0","OBJECT_ID":"2022-052AW","CLASSIFICATION_TYPE":"U","GP_ID":"209932620","FILE":"3533123","RA_OF_ASC_NODE":"10.9944","CENTER_NAME":"EARTH","ECCENTRICITY":"0.00015430","BSTAR":"-0.03430300000000","MEAN_ANOMALY":"278.7418","MEAN_MOTION_DDOT":"0.0000000000000","APOAPSIS":"463.515","REF_FRAME":"TEME","PERIAPSIS":"461.404","OBJECT_TYPE":"PAYLOAD","DECAY_DATE":null,"PERIOD":"93.843","SEMIMAJOR_AXIS":"6840.594","OBJECT_NAME":"STARLINK-3971","MEAN_ELEMENT_THEORY":"SGP4","MEAN_MOTION":"15.34482731","ARG_OF_PERICENTER":"41.1809","TLE_LINE1":"1 52642U 22052AW  22221.91667824 -.01066641  00000-0 -34303-1 0  9992","NORAD_CAT_ID":"52642","EPOCH":"2022-08-09T22:00:00.999936","LAUNCH_DATE":"2022-05-14","ELEMENT_SET_NO":"999","TLE_LINE2":"2 52642  53.2172  10.9944 0001543  41.1809 278.7418 15.34482731  1303","RCS_SIZE":"LARGE","SITE":"AFETR","REV_AT_EPOCH":"130","INCLINATION":"53.2172","TIME_SYSTEM":"UTC","MEAN_MOTION_DOT":"-0.01066641"},{"FILE":"3533123","GP_ID":"209932109","CLASSIFICATION_TYPE":"U","EPHEMERIS_TYPE":"0","COUNTRY_CODE":"US","OBJECT_ID":"2022-052AX","ECCENTRICITY":"0.00013400","CENTER_NAME":"EARTH","RA_OF_ASC_NODE":"11.0463","PERIAPSIS":"456.248","REF_FRAME":"TEME","APOAPSIS":"458.080","MEAN_MOTION_DDOT":"0.0000000000000","MEAN_ANOMALY":"316.2901","BSTAR":"-0.03240500000000","PERIOD":"93.734","DECAY_DATE":null,"OBJECT_TYPE":"PAYLOAD","ARG_OF_PERICENTER":"48.8327","MEAN_MOTION":"15.36266316","MEAN_ELEMENT_THEORY":"SGP4","OBJECT_NAME":"STARLINK-3963","SEMIMAJOR_AXIS":"6835.299","TLE_LINE2":"2 52643  53.2172  11.0463 0001340  48.8327 316.2901 15.36266316  1302","LAUNCH_DATE":"2022-05-14","ELEMENT_SET_NO":"999","EPOCH":"2022-08-09T22:00:00.999936","TLE_LINE1":"1 52643U 22052AX  22221.91667824 -.01067099  00000-0 -32405-1 0  9992","NORAD_CAT_ID":"52643","INCLINATION":"53.2172","REV_AT_EPOCH":"130","SITE":"AFETR","RCS_SIZE":"LARGE","MEAN_MOTION_DOT":"-0.01067099","TIME_SYSTEM":"UTC"},{"ELEMENT_SET_NO":"999","LAUNCH_DATE":"2022-05-14","TLE_LINE2":"2 52644  53.2172  11.0033 0001327  52.7389 275.0661 15.34779925  1301","NORAD_CAT_ID":"52644","TLE_LINE1":"1 52644U 22052AY  22221.91667824 -.01066541  00000-0 -33976-1 0  9998","EPOCH":"2022-08-09T22:00:00.999936","OBJECT_NAME":"STARLINK-3985","MEAN_MOTION":"15.34779925","MEAN_ELEMENT_THEORY":"SGP4","ARG_OF_PERICENTER":"52.7389","SEMIMAJOR_AXIS":"6839.711","TIME_SYSTEM":"UTC","MEAN_MOTION_DOT":"-0.01066541","INCLINATION":"53.2172","REV_AT_EPOCH":"130","RCS_SIZE":"LARGE","SITE":"AFETR","CENTER_NAME":"EARTH","ECCENTRICITY":"0.00013270","RA_OF_ASC_NODE":"11.0033","FILE":"3533123","COUNTRY_CODE":"US","OBJECT_ID":"2022-052AY","EPHEMERIS_TYPE":"0","CLASSIFICATION_TYPE":"U","GP_ID":"209932370","PERIOD":"93.825","OBJECT_TYPE":"PAYLOAD","DECAY_DATE":null,"APOAPSIS":"462.484","REF_FRAME":"TEME","PERIAPSIS":"460.669","BSTAR":"-0.03397600000000","MEAN_ANOMALY":"275.0661","MEAN_MOTION_DDOT":"0.0000000000000"},{"INCLINATION":"53.2172","REV_AT_EPOCH":"130","SITE":"AFETR","RCS_SIZE":"LARGE","MEAN_MOTION_DOT":"-0.01067089","TIME_SYSTEM":"UTC","ARG_OF_PERICENTER":"53.6107","MEAN_MOTION":"15.36483391","MEAN_ELEMENT_THEORY":"SGP4","OBJECT_NAME":"STARLINK-3973","SEMIMAJOR_AXIS":"6834.655","TLE_LINE2":"2 52645  53.2172  11.0522 0001271  53.6107 316.8635 15.36483391  1307","LAUNCH_DATE":"2022-05-14","ELEMENT_SET_NO":"999","EPOCH":"2022-08-09T22:00:00.999936","NORAD_CAT_ID":"52645","TLE_LINE1":"1 52645U 22052AZ  22221.91667824 -.01067089  00000-0 -32178-1 0  9990","PERIAPSIS":"455.651","REF_FRAME":"TEME","APOAPSIS":"457.389","MEAN_MOTION_DDOT":"0.0000000000000","MEAN_ANOMALY":"316.8635","BSTAR":"-0.03217800000000","PERIOD":"93.721","DECAY_DATE":null,"OBJECT_TYPE":"PAYLOAD","FILE":"3533123","GP_ID":"209931842","CLASSIFICATION_TYPE":"U","OBJECT_ID":"2022-052AZ","COUNTRY_CODE":"US","EPHEMERIS_TYPE":"0","ECCENTRICITY":"0.00012710","CENTER_NAME":"EARTH","RA_OF_ASC_NODE":"11.0522"},{"SITE":"AFETR","RCS_SIZE":"LARGE","INCLINATION":"53.2172","REV_AT_EPOCH":"130","MEAN_MOTION_DOT":"-0.01067037","TIME_SYSTEM":"UTC","SEMIMAJOR_AXIS":"6837.063","ARG_OF_PERICENTER":"44.3933","MEAN_MOTION":"15.35671847","MEAN_ELEMENT_THEORY":"SGP4","OBJECT_NAME":"STARLINK-3832","EPOCH":"2022-08-09T22:00:00.999936","TLE_LINE1":"1 52646U 22052BA  22221.91667824 -.01067037  00000-0 -33031-1 0  9993","NORAD_CAT_ID":"52646","TLE_LINE2":"2 52646  53.2172  11.0294 0001427  44.3933 306.2210 15.35671847  1307","ELEMENT_SET_NO":"999","LAUNCH_DATE":"2022-05-14","MEAN_MOTION_DDOT":"0.0000000000000","MEAN_ANOMALY":"306.2210","BSTAR":"-0.03303100000000","PERIAPSIS":"457.952","REF_FRAME":"TEME","APOAPSIS":"459.903","DECAY_DATE":null,"OBJECT_TYPE":"PAYLOAD","PERIOD":"93.770","GP_ID":"209932495","CLASSIFICATION_TYPE":"U","COUNTRY_CODE":"US","OBJECT_ID":"2022-052BA","EPHEMERIS_TYPE":"0","FILE":"3533123","RA_OF_ASC_NODE":"11.0294","ECCENTRICITY":"0.00014270","CENTER_NAME":"EARTH"},{"PERIAPSIS":"453.882","REF_FRAME":"TEME","APOAPSIS":"455.633","MEAN_MOTION_DDOT":"0.0000000000000","MEAN_ANOMALY":"331.3278","BSTAR":"-0.03156600000000","PERIOD":"93.684","DECAY_DATE":null,"OBJECT_TYPE":"PAYLOAD","FILE":"3533123","GP_ID":"209931711","CLASSIFICATION_TYPE":"U","OBJECT_ID":"2022-052BB","COUNTRY_CODE":"US","EPHEMERIS_TYPE":"0","ECCENTRICITY":"0.00012810","CENTER_NAME":"EARTH","RA_OF_ASC_NODE":"11.0687","REV_AT_EPOCH":"130","INCLINATION":"53.2172","SITE":"AFETR","RCS_SIZE":"LARGE","MEAN_MOTION_DOT":"-0.01067204","TIME_SYSTEM":"UTC","ARG_OF_PERICENTER":"52.8926","MEAN_MOTION":"15.37077852","MEAN_ELEMENT_THEORY":"SGP4","OBJECT_NAME":"STARLINK-3846","SEMIMAJOR_AXIS":"6832.893","TLE_LINE2":"2 52647  53.2172  11.0687 0001281  52.8926 331.3278 15.37077852  1309","ELEMENT_SET_NO":"999","LAUNCH_DATE":"2022-05-14","EPOCH":"2022-08-09T22:00:00.999936","NORAD_CAT_ID":"52647","TLE_LINE1":"1 52647U 22052BB  22221.91667824 -.01067204  00000-0 -31566-1 0  9991"},{"TIME_SYSTEM":"UTC","MEAN_MOTION_DOT":"-0.01067031","INCLINATION":"53.2172","REV_AT_EPOCH":"130","RCS_SIZE":"LARGE","SITE":"AFETR","LAUNCH_DATE":"2022-05-14","ELEMENT_SET_NO":"999","TLE_LINE2":"2 52648  53.2172  11.0380 0001328  49.9155 308.0229 15.35969064  1303","TLE_LINE1":"1 52648U 22052BC  22221.91667824 -.01067031  00000-0 -32716-1 0  9998","NORAD_CAT_ID":"52648","EPOCH":"2022-08-09T22:00:00.999936","OBJECT_NAME":"STARLINK-3854","MEAN_MOTION":"15.35969064","MEAN_ELEMENT_THEORY":"SGP4","ARG_OF_PERICENTER":"49.9155","SEMIMAJOR_AXIS":"6836.181","PERIOD":"93.752","OBJECT_TYPE":"PAYLOAD","DECAY_DATE":null,"APOAPSIS":"458.953","REF_FRAME":"TEME","PERIAPSIS":"457.138","BSTAR":"-0.03271600000000","MEAN_ANOMALY":"308.0229","MEAN_MOTION_DDOT":"0.0000000000000","CENTER_NAME":"EARTH","ECCENTRICITY":"0.00013280","RA_OF_ASC_NODE":"11.0380","FILE":"3533123","EPHEMERIS_TYPE":"0","COUNTRY_CODE":"US","OBJECT_ID":"2022-052BC","GP_ID":"209931973","CLASSIFICATION_TYPE":"U"},{"SEMIMAJOR_AXIS":"6833.774","OBJECT_NAME":"STARLINK-3868","MEAN_ELEMENT_THEORY":"SGP4","MEAN_MOTION":"15.36780653","ARG_OF_PERICENTER":"46.4821","NORAD_CAT_ID":"52649","TLE_LINE1":"1 52649U 22052BD  22221.91667824 -.01067206  00000-0 -31872-1 0  9995","EPOCH":"2022-08-09T22:00:00.999936","LAUNCH_DATE":"2022-05-14","ELEMENT_SET_NO":"999","TLE_LINE2":"2 52649  53.2172  11.0605 0001377  46.4821 330.9349 15.36780653  1303","RCS_SIZE":"LARGE","SITE":"AFETR","REV_AT_EPOCH":"130","INCLINATION":"53.2172","TIME_SYSTEM":"UTC","MEAN_MOTION_DOT":"-0.01067206","EPHEMERIS_TYPE":"0","COUNTRY_CODE":"US","OBJECT_ID":"2022-052BD","CLASSIFICATION_TYPE":"U","GP_ID":"209932240","FILE":"3533123","RA_OF_ASC_NODE":"11.0605","CENTER_NAME":"EARTH","ECCENTRICITY":"0.00013770","BSTAR":"-0.03187200000000","MEAN_ANOMALY":"330.9349","MEAN_MOTION_DDOT":"0.0000000000000","APOAPSIS":"456.580","REF_FRAME":"TEME","PERIAPSIS":"454.698","OBJECT_TYPE":"PAYLOAD","DECAY_DATE":null,"PERIOD":"93.702"}];
